{"type": "FeatureCollection", "features": [ {"type": "Feature", "properties": {"norad_id": 43010, "name": "FENGYUN 3D", "group": "weather", "lat": -72.18064686083797, "lon": 93.87409863676089, "alt_km": 833.3410675821187, "timestamp": "2025-12-03T04:52:29.284073+00:00", "meta": {"OBJECT_NAME": "FENGYUN 3D", "OBJECT_ID": "2017-072A", "EPOCH": "2025-12-02T20:54:49.018752", "MEAN_MOTION": 14.19679097, "ECCENTRICITY": 5.81e-05, "INCLINATION": 98.9879, "RA_OF_ASC_NODE": 303.0345, "ARG_OF_PERICENTER": 225.1398, "MEAN_ANOMALY": 134.973, "EPHEMERIS_TYPE": 0, "CLASSIFICATION_TYPE": "U", "NORAD_CAT_ID": 43010, "ELEMENT_SET_NO": 999, "REV_AT_EPOCH": 41713, "BSTAR": 9.8281e-05, "MEAN_MOTION_DOT": 1.62e-06, "MEAN_MOTION_DDOT": 0}, "tle": {"line1": "1 43010U 17072A   25336.87140068  .00000162  00000+0  98281-4 0  9998", "line2": "2 43010  98.9879 303.0345 0000581 225.1398 134.9730 14.19679097417138"}}, "geometry": {"type": "Point", "coordinates": [93.87409863676089, -72.18064686083797]}}, {"type": "Feature", "properties": {"norad_id": 43013, "name": "NOAA 20 (JPSS-1)", "group": "weather", "lat": 51.516217098387784, "lon": -97.5770734781103, "alt_km": 821.1690392504679, "timestamp": "2025-12-03T04:52:29.284084+00:00", "meta": {"OBJECT_NAME": "NOAA 20 (JPSS-1)", "OBJECT_ID": "2017-073A", "EPOCH": "2025-12-02T20:10:14.314080", "MEAN_MOTION": 14.19521388, "ECCENTRICITY": 0.0002052, "INCLINATION": 98.7584, "RA_OF_ASC_NODE": 273.2461, "ARG_OF_PERICENTER": 101.5196, "MEAN_ANOMALY": 258.6211, "EPHEMERIS_TYPE": 0, "CLASSIFICATION_TYPE": "U", "NORAD_CAT_ID": 43013, "ELEMENT_SET_NO": 999, "REV_AT_EPOCH": 41661, "BSTAR": 7.8309e-05, "MEAN_MOTION_DOT": 1.21e-06, "MEAN_MOTION_DDOT": 0}, "tle": {"line1": "1 43013U 17073A   25336.84044345  .00000121  00000+0  78309-4 0  9994", "line2": "2 43013  98.7584 273.2461 0002052 101.5196 258.6211 14.19521388416616"}}, "geometry": {"type": "Point", "coordinates": [-97.5770734781103, 51.516217098387784]}}, {"type": "Feature", "properties": {"norad_id": 43226, "name": "GOES 17", "group": "weather", "lat": -0.21218127237014975, "lon": 55.91521525167425, "alt_km": 35797.97095445556, "timestamp": "2025-12-03T04:52:29.284097+00:00", "meta": {"OBJECT_NAME": "GOES 17", "OBJECT_ID": "2018-022A", "EPOCH": "2025-12-02T13:21:34.968672", "MEAN_MOTION": 1.00271638, "ECCENTRICITY": 0.00033689, "INCLINATION": 0.4312, "RA_OF_ASC_NODE": 89.3419, "ARG_OF_PERICENTER": 180.9825, "MEAN_ANOMALY": 272.231, "EPHEMERIS_TYPE": 0, "CLASSIFICATION_TYPE": "U", "NORAD_CAT_ID": 43226, "ELEMENT_SET_NO": 999, "REV_AT_EPOCH": 2845, "BSTAR": 0, "MEAN_MOTION_DOT": -1.62e-06, "MEAN_MOTION_DDOT": 0}, "tle": {"line1": "1 43226U 18022A   25336.55665473 -.00000162  00000+0  00000+0 0  9998", "line2": "2 43226   0.4312  89.3419 0003368 180.9825 272.2310  1.00271638 28450"}}, "geometry": {"type": "Point", "coordinates": [55.91521525167425, -0.21218127237014975]}}, {"type": "Feature", "properties": {"norad_id": 43491, "name": "FENGYUN 2H", "group": "weather", "lat": 1.4819644082254253, "lon": -135.2288158578235, "alt_km": 35774.40162196639, "timestamp": "2025-12-03T04:52:29.284109+00:00", "meta": {"OBJECT_NAME": "FENGYUN 2H", "OBJECT_ID": "2018-050A", "EPOCH": "2025-12-02T20:20:17.023200", "MEAN_MOTION": 1.00271461, "ECCENTRICITY": 0.0002887, "INCLINATION": 2.5232, "RA_OF_ASC_NODE": 81.4398, "ARG_OF_PERICENTER": 161.9482, "MEAN_ANOMALY": 212.9879, "EPHEMERIS_TYPE": 0, "CLASSIFICATION_TYPE": "U", "NORAD_CAT_ID": 43491, "ELEMENT_SET_NO": 999, "REV_AT_EPOCH": 2747, "BSTAR": 0, "MEAN_MOTION_DOT": -1.11e-06, "MEAN_MOTION_DDOT": 0}, "tle": {"line1": "1 43491U 18050A   25336.84741925 -.00000111  00000+0  00000+0 0  9996", "line2": "2 43491   2.5232  81.4398 0002887 161.9482 212.9879  1.00271461 27476"}}, "geometry": {"type": "Point", "coordinates": [-135.2288158578235, 1.4819644082254253]}}, {"type": "Feature", "properties": {"norad_id": 43689, "name": "METOP-C", "group": "weather", "lat": 53.34746662582972, "lon": -133.014536160066, "alt_km": 814.754465093738, "timestamp": "2025-12-03T04:52:29.284129+00:00", "meta": {"OBJECT_NAME": "METOP-C", "OBJECT_ID": "2018-087A", "EPOCH": "2025-12-02T19:50:21.217344", "MEAN_MOTION": 14.21505697, "ECCENTRICITY": 0.0001726, "INCLINATION": 98.6944, "RA_OF_ASC_NODE": 34.7474, "ARG_OF_PERICENTER": 58.4616, "MEAN_ANOMALY": 301.673, "EPHEMERIS_TYPE": 0, "CLASSIFICATION_TYPE": "U", "NORAD_CAT_ID": 43689, "ELEMENT_SET_NO": 999, "REV_AT_EPOCH": 36693, "BSTAR": 0.00011123, "MEAN_MOTION_DOT": 2e-06, "MEAN_MOTION_DDOT": 0}, "tle": {"line1": "1 43689U 18087A   25336.82663446  .00000200  00000+0  11123-3 0  9994", "line2": "2 43689  98.6944  34.7474 0001726  58.4616 301.6730 14.21505697366934"}}, "geometry": {"type": "Point", "coordinates": [-133.014536160066, 53.34746662582972]}}, {"type": "Feature", "properties": {"norad_id": 43823, "name": "GEO-KOMPSAT-2A", "group": "weather", "lat": 0.004541529877895346, "lon": -86.33845845073597, "alt_km": 35786.128811598275, "timestamp": "2025-12-03T04:52:29.284141+00:00", "meta": {"OBJECT_NAME": "GEO-KOMPSAT-2A", "OBJECT_ID": "2018-100A", "EPOCH": "2025-12-02T05:57:38.748960", "MEAN_MOTION": 1.00270582, "ECCENTRICITY": 5.7e-05, "INCLINATION": 0.0606, "RA_OF_ASC_NODE": 123.2735, "ARG_OF_PERICENTER": 70.3508, "MEAN_ANOMALY": 95.4102, "EPHEMERIS_TYPE": 0, "CLASSIFICATION_TYPE": "U", "NORAD_CAT_ID": 43823, "ELEMENT_SET_NO": 999, "REV_AT_EPOCH": 2565, "BSTAR": 0, "MEAN_MOTION_DOT": -3.23e-06, "MEAN_MOTION_DDOT": 0}, "tle": {"line1": "1 43823U 18100A   25336.24836515 -.00000323  00000+0  00000+0 0  9990", "line2": "2 43823   0.0606 123.2735 0000570  70.3508  95.4102  1.00270582 25656"}}, "geometry": {"type": "Point", "coordinates": [-86.33845845073597, 0.004541529877895346]}}, {"type": "Feature", "properties": {"norad_id": 44387, "name": "METEOR-M2 2", "group": "weather", "lat": 73.39037879221208, "lon": 168.48906715497242, "alt_km": 803.5711264791735, "timestamp": "2025-12-03T04:52:29.284153+00:00", "meta": {"OBJECT_NAME": "METEOR-M2 2", "OBJECT_ID": "2019-038A", "EPOCH": "2025-12-02T19:57:28.709856", "MEAN_MOTION": 14.24284618, "ECCENTRICITY": 8.47e-05, "INCLINATION": 98.8962, "RA_OF_ASC_NODE": 316.4397, "ARG_OF_PERICENTER": 169.4743, "MEAN_ANOMALY": 190.6453, "EPHEMERIS_TYPE": 0, "CLASSIFICATION_TYPE": "U", "NORAD_CAT_ID": 44387, "ELEMENT_SET_NO": 999, "REV_AT_EPOCH": 33334, "BSTAR": 0.00012698, "MEAN_MOTION_DOT": 2.47e-06, "MEAN_MOTION_DDOT": 0}, "tle": {"line1": "1 44387U 19038A   25336.83158229  .00000247  00000+0  12698-3 0  9995", "line2": "2 44387  98.8962 316.4397 0000847 169.4743 190.6453 14.24284618333340"}}, "geometry": {"type": "Point", "coordinates": [168.48906715497242, 73.39037879221208]}}, {"type": "Feature", "properties": {"norad_id": 47719, "name": "ARKTIKA-M 1", "group": "weather", "lat": 52.89054764094808, "lon": 127.2240938964329, "alt_km": 30022.06458678476, "timestamp": "2025-12-03T04:52:29.284167+00:00", "meta": {"OBJECT_NAME": "ARKTIKA-M 1", "OBJECT_ID": "2021-016A", "EPOCH": "2025-12-01T02:41:41.634816", "MEAN_MOTION": 2.00613156, "ECCENTRICITY": 0.71974708, "INCLINATION": 63.1756, "RA_OF_ASC_NODE": 85.6045, "ARG_OF_PERICENTER": 269.084, "MEAN_ANOMALY": 15.7076, "EPHEMERIS_TYPE": 0, "CLASSIFICATION_TYPE": "U", "NORAD_CAT_ID": 47719, "ELEMENT_SET_NO": 999, "REV_AT_EPOCH": 3481, "BSTAR": 0, "MEAN_MOTION_DOT": -1.2e-07, "MEAN_MOTION_DDOT": 0}, "tle": {"line1": "1 47719U 21016A   25335.11228744 -.00000012  00000+0  00000+0 0  9997", "line2": "2 47719  63.1756  85.6045 7197470 269.0840  15.7076  2.00613156 34816"}}, "geometry": {"type": "Point", "coordinates": [127.2240938964329, 52.89054764094808]}}, {"type": "Feature", "properties": {"norad_id": 49008, "name": "FENGYUN 3E", "group": "weather", "lat": -34.28888700963369, "lon": 151.81087252172057, "alt_km": 832.1331167943072, "timestamp": "2025-12-03T04:52:29.284181+00:00", "meta": {"OBJECT_NAME": "FENGYUN 3E", "OBJECT_ID": "2021-062A", "EPOCH": "2025-12-02T21:06:07.010784", "MEAN_MOTION": 14.19877899, "ECCENTRICITY": 7.78e-05, "INCLINATION": 98.7476, "RA_OF_ASC_NODE": 337.5173, "ARG_OF_PERICENTER": 327.277, "MEAN_ANOMALY": 32.8357, "EPHEMERIS_TYPE": 0, "CLASSIFICATION_TYPE": "U", "NORAD_CAT_ID": 49008, "ELEMENT_SET_NO": 999, "REV_AT_EPOCH": 22872, "BSTAR": 5.0139e-05, "MEAN_MOTION_DOT": 6.2e-07, "MEAN_MOTION_DDOT": 0}, "tle": {"line1": "1 49008U 21062A   25336.87924781  .00000062  00000+0  50139-4 0  9996", "line2": "2 49008  98.7476 337.5173 0000778 327.2770  32.8357 14.19877899228725"}}, "geometry": {"type": "Point", "coordinates": [151.81087252172057, -34.28888700963369]}}, {"type": "Feature", "properties": {"norad_id": 51850, "name": "GOES 18", "group": "weather", "lat": -0.006454824133769917, "lon": 8.39282321068319, "alt_km": 35786.9407302048, "timestamp": "2025-12-03T04:52:29.284194+00:00", "meta": {"OBJECT_NAME": "GOES 18", "OBJECT_ID": "2022-021A", "EPOCH": "2025-12-02T16:33:27.976032", "MEAN_MOTION": 1.00267928, "ECCENTRICITY": 6.32e-05, "INCLINATION": 0.0163, "RA_OF_ASC_NODE": 143.789, "ARG_OF_PERICENTER": 138.5775, "MEAN_ANOMALY": 260.791, "EPHEMERIS_TYPE": 0, "CLASSIFICATION_TYPE": "U", "NORAD_CAT_ID": 51850, "ELEMENT_SET_NO": 999, "REV_AT_EPOCH": 462, "BSTAR": 0, "MEAN_MOTION_DOT": 1.17e-06, "MEAN_MOTION_DDOT": 0}, "tle": {"line1": "1 51850U 22021A   25336.68990713  .00000117  00000+0  00000+0 0  9995", "line2": "2 51850   0.0163 143.7890 0000632 138.5775 260.7910  1.00267928  4622"}}, "geometry": {"type": "Point", "coordinates": [8.39282321068319, -0.006454824133769917]}}]}